NORAD_CAT_ID,OBJECT_NAME,OBJECT_TYPE,EPOCH,MEAN_MOTION,ECCENTRICITY,INCLINATION,RA_OF_ASC_NODE,ARG_OF_PERICENTER,MEAN_ANOMALY,BSTAR,MEAN_MOTION_DOT,MEAN_MOTION_DDOT,TLE_LINE0,TLE_LINE1,TLE_LINE2,SEMIMAJOR_AXIS,PERIOD,APOGEE,PERIGEE,DECAYED
49150.0,STARLINK-3104,PAYLOAD,2022-04-17 22:00:00,14.98314028,0.000347,70.0011,279.2322,285.5136,132.1484,0.0032260999999999,0.00038598,0.0,0 STARLINK-3104,1 49150U 21082W   22107.91667824  .00038598  00000-0  32261-2 0  9996,2 49150  70.0011 279.2322 0003470 285.5136 132.1484 14.98314028  3580,6950.2419999999975,96.108,574.519,569.696,0.0
49150.0,STARLINK-3104,PAYLOAD,2022-04-18 04:00:00,14.98344334,0.0003372,70.001,278.6019,283.1909,42.5818,-0.0026302,-0.00031349,0.0,0 STARLINK-3104,1 49150U 21082W   22108.16667824 -.00031349  00000-0 -26302-2 0  9992,2 49150  70.0010 278.6019 0003372 283.1909  42.5818 14.98344334 34254,6950.149,96.106,574.357,569.67,0.0
49150.0,STARLINK-3104,PAYLOAD,2022-04-18 12:00:00,14.98349615,0.0003368,70.0015,277.7614,279.4274,43.8249,-0.00027894,-3.421e-05,0.0,0 STARLINK-3104,1 49150U 21082W   22108.50001157 -.00003421  00000-0 -27894-3 0  9999,2 49150  70.0015 277.7614 0003368 279.4274  43.8249 14.98349615 34303,6950.132,96.106,574.3380000000002,569.656,0.0
49150.0,STARLINK-3104,PAYLOAD,2022-04-18 14:00:01,14.98364129,0.0003408,70.0015,277.5512,280.8292,131.7954,-0.003168,-0.00037725,0.0,0 STARLINK-3104,1 49150U 21082W   22108.58334491 -.00037725  00000-0 -31680-2 0  9998,2 49150  70.0015 277.5512 0003408 280.8292 131.7954 14.98364129  3593,6950.087,96.105,574.321,569.5840000000002,0.0
49150.0,STARLINK-3104,PAYLOAD,2022-04-18 22:00:00,14.98340686,0.0003428,70.0013,276.7106,285.9713,124.1612,2.6873e-05,2.28e-06,0.0,0 STARLINK-3104,1 49150U 21082W   22108.91667824  .00000228  00000-0  26873-4 0  9990,2 49150  70.0013 276.7106 0003428 285.9713 124.1612 14.98340686  3552,6950.16,96.106,574.4069999999998,569.6419999999998,0.0
49150.0,STARLINK-3104,PAYLOAD,2022-04-19 14:00:01,14.983492000000002,0.0003308,70.0018,275.0296,280.8406,124.2545,-0.0030233,-0.00036001,0.0,0 STARLINK-3104,1 49150U 21082W   22109.58334491 -.00036001  00000-0 -30233-2 0  9998,2 49150  70.0018 275.0296 0003308 280.8406 124.2545 14.98349200 34460,6950.134,96.106,574.298,569.6990000000002,0.0
49150.0,STARLINK-3104,PAYLOAD,2022-04-20 04:00:00,14.98335211,0.0003318,70.0015,273.5588,282.17,28.5267,-0.0014735,-0.00017633,0.0,0 STARLINK-3104,1 49150U 21082W   22110.16667824 -.00017633  00000-0 -14735-2 0  9992,2 49150  70.0015 273.5588 0003318 282.1700  28.5267 14.98335211 34551,6950.177,96.107,574.3480000000002,569.736,0.0
49150.0,STARLINK-3104,PAYLOAD,2022-04-20 14:00:01,14.98362324,0.0003363,70.002,272.5082,280.0156,117.5281,-0.0031572,-0.00037595,0.0,0 STARLINK-3104,1 49150U 21082W   22110.58334491 -.00037595  00000-0 -31572-2 0  9996,2 49150  70.0020 272.5082 0003363 280.0156 117.5281 14.98362324  3586,6950.093000000003,96.105,574.295,569.621,0.0
49150.0,STARLINK-3104,PAYLOAD,2022-04-20 20:00:01,14.98335431,0.0003376,70.0019,271.8778,284.4096,21.2672,-0.00051326,-6.213e-05,0.0,0 STARLINK-3104,1 49150U 21082W   22110.83334491 -.00006213  00000-0 -51326-3 0  9997,2 49150  70.0019 271.8778 0003376 284.4096  21.2672 14.98335431 34659,6950.176,96.107,574.387,569.695,0.0
49150.0,STARLINK-3104,PAYLOAD,2022-04-20 22:00:00,14.98336744,0.0003411,70.0017,271.6677,284.7562,110.2931,-0.0012608,-0.00015107,0.0,0 STARLINK-3104,1 49150U 21082W   22110.91667824 -.00015107  00000-0 -12608-2 0  9996,2 49150  70.0017 271.6677 0003411 284.7562 110.2931 14.98336744  3576,6950.172,96.107,574.408,569.6659999999998,0.0
49150.0,STARLINK-3104,PAYLOAD,2022-04-21 14:00:01,14.9834988,0.0003358,70.002,269.987,279.8274,110.171,-0.003324,-0.00039553,0.0,0 STARLINK-3104,1 49150U 21082W   22111.58334491 -.00039553  00000-0 -33240-2 0  9997,2 49150  70.0020 269.9870 0003358 279.8274 110.1710 14.98349880  3591,6950.130999999999,96.106,574.33,569.663,0.0
49150.0,STARLINK-3104,PAYLOAD,2022-04-21 22:00:00,14.98323676,0.0003443,70.0017,269.1465,284.3877,103.1039,0.0021593,0.00025763,0.0,0 STARLINK-3104,1 49150U 21082W   22111.91667824  .00025763  00000-0  21593-2 0  9997,2 49150  70.0017 269.1465 0003443 284.3877 103.1039 14.98323676  3573,6950.212,96.107,574.47,569.684,0.0
49150.0,STARLINK-3104,PAYLOAD,2022-04-22 14:00:01,14.98382798,0.0003392,70.0019,267.466,280.2965,102.1731,-0.0072098,-0.00085202,0.0,0 STARLINK-3104,1 49150U 21082W   22112.58334491 -.00085202  00000-0 -72098-2 0  9994,2 49150  70.0019 267.4660 0003392 280.2965 102.1731 14.98382798  3599,6950.03,96.104,574.252,569.5369999999998,0.0
49150.0,STARLINK-3104,PAYLOAD,2022-04-22 20:00:01,14.98308296,0.0003318,70.0017,266.8357,284.8806,5.7343,0.0029703,0.00035509,0.0,0 STARLINK-3104,1 49150U 21082W   22112.83334491  .00035509  00000-0  29703-2 0  9990,2 49150  70.0017 266.8357 0003318 284.8806   5.7343 14.98308296 34957,6950.26,96.108,574.431,569.819,0.0
49150.0,STARLINK-3104,PAYLOAD,2022-04-23 04:00:00,14.98319821,0.0003201,70.0016,265.9952,281.7868,6.3083,-0.0023166,-0.00027619,0.0,0 STARLINK-3104,1 49150U 21082W   22113.16667824 -.00027619  00000-0 -23166-2 0  9998,2 49150  70.0016 265.9952 0003201 281.7868   6.3083 14.98319821 35003,6950.224,96.108,574.314,569.865,0.0
49150.0,STARLINK-3104,PAYLOAD,2022-04-23 14:00:01,14.98331361,0.0003231,70.0017,264.9449,281.5724,93.3402,-0.0029944,-0.00035643,0.0,0 STARLINK-3104,1 49150U 21082W   22113.58334491 -.00035643  00000-0 -29944-2 0  9991,2 49150  70.0017 264.9449 0003231 281.5724  93.3402 14.98331361  3599,6950.189,96.107,574.299,569.808,0.0
49150.0,STARLINK-3104,PAYLOAD,2022-04-23 20:00:01,14.98296019,0.0003228,70.0014,264.3147,286.3248,356.6973,0.0039053,0.00046776,0.0,0 STARLINK-3104,1 49150U 21082W   22113.83334491  .00046776  00000-0  39053-2 0  9998,2 49150  70.0014 264.3147 0003228 286.3248 356.6973 14.98296019 35105,6950.2980000000025,96.109,574.4069999999998,569.919,0.0
49150.0,STARLINK-3104,PAYLOAD,2022-04-24 12:00:02,14.98353812,0.0003193,70.0015,262.634,280.6423,357.3753,-0.0022135,-0.00026421,0.0,0 STARLINK-3104,1 49150U 21082W   22114.50002315 -.00026421  00000-0 -22135-2 0  9990,2 49150  70.0015 262.6340 0003193 280.6423 357.3753 14.98353812 35205,6950.119000000002,96.105,574.203,569.765,0.0
49150.0,STARLINK-3104,PAYLOAD,2022-04-24 14:00:01,14.98351532,0.0003234,70.0014,262.4239,282.4525,84.87899999999998,-0.0024143,-0.00028799,0.0,0 STARLINK-3104,1 49150U 21082W   22114.58334491 -.00028799  00000-0 -24143-2 0  9992,2 49150  70.0014 262.4239 0003234 282.4525  84.8790 14.98351532  3584,6950.126,96.106,574.239,569.744,0.0
49150.0,STARLINK-3104,PAYLOAD,2022-04-25 12:00:00,14.98347082,0.0003339,70.0013,260.1126,280.1375,350.2806,-0.0022085,-0.00026358,0.0,0 STARLINK-3104,1 49150U 21082W   22115.50001157 -.00026358  00000-0 -22085-2 0  9997,2 49150  70.0013 260.1126 0003339 280.1375 350.2806 14.98347082 35350,6950.14,96.106,574.326,569.684,0.0
49150.0,STARLINK-3104,PAYLOAD,2022-04-25 14:00:01,14.98343185,0.0003373,70.0013,259.9025,281.8268,77.9661,-0.0021202,-0.00025309,0.0,0 STARLINK-3104,1 49150U 21082W   22115.58334491 -.00025309  00000-0 -21202-2 0  9990,2 49150  70.0013 259.9025 0003373 281.8268  77.9661 14.98343185  3583,6950.151999999999,96.106,574.361,569.673,0.0
49150.0,STARLINK-3104,PAYLOAD,2022-04-25 22:00:00,14.98340811,0.000343,70.0008,259.0619,285.46,71.8183,-8.7062e-05,-1.132e-05,0.0,0 STARLINK-3104,1 49150U 21082W   22115.91667824 -.00001132  00000-0 -87062-4 0  9992,2 49150  70.0008 259.0619 0003430 285.4600  71.8183 14.98340811  3609,6950.159000000002,96.106,574.408,569.641,0.0
49150.0,STARLINK-3104,PAYLOAD,2022-04-26 04:00:00,14.98328683,0.0003336,70.001,258.4315,281.161,344.2496,0.0016461,0.00019603,0.0,0 STARLINK-3104,1 49150U 21082W   22116.16667824  .00019603  00000-0  16461-2 0  9993,2 49150  70.0010 258.4315 0003336 281.1610 344.2496 14.98328683 35452,6950.196999999999,96.107,574.381,569.743,0.0
49150.0,STARLINK-3104,PAYLOAD,2022-04-26 14:00:01,14.98343086,0.0003337,70.0013,257.381,281.5333,70.8059,-0.0021164,-0.00025264,0.0,0 STARLINK-3104,1 49150U 21082W   22116.58335648 -.00025264  00000-0 -21164-2 0  9993,2 49150  70.0013 257.3810 0003337 281.5333  70.8059 14.98343086  3579,6950.151999999999,96.106,574.337,569.698,0.0
49150.0,STARLINK-3104,PAYLOAD,2022-04-26 22:00:00,14.98347839,0.0003355,70.0009,256.5404,285.2076,64.5506,-0.0042784,-0.00050799,0.0,0 STARLINK-3104,1 49150U 21082W   22116.91667824 -.00050799  00000-0 -42784-2 0  9996,2 49150  70.0009 256.5404 0003355 285.2076  64.5506 14.98347839 35560,6950.138000000001,96.106,574.3340000000002,569.6709999999998,0.0
49150.0,STARLINK-3104,PAYLOAD,2022-04-27 12:00:00,14.98342471,0.0003293,70.0016,255.0696,279.9741,335.3528,-0.0026575,-0.0003167,0.0,0 STARLINK-3104,1 49150U 21082W   22117.50001157 -.00031670  00000-0 -26575-2 0  9990,2 49150  70.0016 255.0696 0003293 279.9741 335.3528 14.98342471 35655,6950.154,96.106,574.308,569.731,0.0
49150.0,STARLINK-3104,PAYLOAD,2022-04-27 14:00:01,14.98333749,0.0003321,70.0015,254.8595,281.7604,63.0033,-0.0017758,-0.0002122,0.0,0 STARLINK-3104,1 49150U 21082W   22117.58335648 -.00021220  00000-0 -17758-2 0  9996,2 49150  70.0015 254.8595 0003321 281.7604  63.0033 14.98333749  3570,6950.181,96.107,574.354,569.738,0.0
49150.0,STARLINK-3104,PAYLOAD,2022-04-27 20:00:01,14.98312841,0.0003382,70.0014,254.2291,285.5284,327.2899,0.003895,0.00046672,0.0,0 STARLINK-3104,1 49150U 21082W   22117.83334491  .00046672  00000-0  38950-2 0  9992,2 49150  70.0014 254.2291 0003382 285.5284 327.2899 14.98312841 35704,6950.246,96.108,574.462,569.76,0.0
49150.0,STARLINK-3104,PAYLOAD,2022-04-28 12:00:00,14.98384746,0.000338,70.0019,252.5483,280.4511,327.3485,-0.0036475,-0.00043409,0.0,0 STARLINK-3104,1 49150U 21082W   22118.50001157 -.00043409  00000-0 -36475-2 0  9994,2 49150  70.0019 252.5483 0003380 280.4511 327.3485 14.98384746 35804,6950.024,96.103,574.238,569.539,0.0
